1 05000U 70025 HW 92331.78166860  .00000822 +00000-0 +28221-2 0  9998
2 05000 099.7939 090.6046 0511885 275.3480 078.9427 12.61483465041344
1 05000U 70025 HW 92332.25751863  .00000824 +00000-0 +28825-2 0  9996
2 05000 099.7942 091.0077 0511847 274.3487 079.9420 12.61484829041407
1 05000U 70025 HW 92333.28852406  .00000850 +00000-0 +29190-2 0  9990
2 05000 099.7943 091.8768 0511913 272.1530 082.1133 12.61487011041539
1 05000U 70025 HW 92334.79537873  .00000868 +00000-0 +29796-2 0  9996
2 05000 099.7946 093.1489 0511831 268.9616 085.2812 12.61490200041727
1 05000U 70025 HW 92335.27122745  .00000877 +00000-0 +30089-2 0  9995
2 05000 099.7949 093.5520 0512009 267.9505 086.2941 12.61491261041782
1 05000U 70025 HW 92336.22292641  .00000869 +00000-0 +30350-2 0  9996
2 05000 099.7952 094.3567 0512180 265.9496 088.2934 12.61493085041907
1 05000U 70025 HW 92336.77808445  .00000880 +00000-0 +30205-2 0  9993
2 05000 099.7950 094.8237 0512210 264.7637 089.4811 12.61493985041975
1 05000U 70025 HW 92338.20563384  .00000908 +00000-0 +31121-2 0  9992
2 05000 099.7954 096.0307 0512370 261.7639 092.5080 12.61497344042154
1 05000U 70025 HW 92338.76079049  .00000898 +00000-0 +30799-2 0  9991
2 05000 099.7948 096.4955 0512579 260.5803 093.6971 12.61498191042221
1 05000U 70025 HW 92340.18834322  .00000912 +00000-0 +31212-2 0  9991
2 05000 099.7950 097.7018 0512933 257.5852 096.7409 12.61501054042405
1 05000U 70025 HW 92341.93312801  .00000913 +00000-0 +31212-2 0  9999
2 05000 099.7943 099.1711 0513625 253.9476 100.4438 12.61504268042623
1 05000U 70025 HW 92342.25036152  .00000927 +00000-0 +31677-2 0  9997
2 05000 099.7943 099.4386 0513714 253.2863 101.1359 12.61505363042667
1 05000U 70025 HW 92343.75721935  .00000923 +00000-0 +31507-2 0  9991
2 05000 099.7939 100.7073 0513835 250.0817 104.4207 12.61508113042854
1 05000U 70025 HW 92344.31238021  .00000923 +00000-0 +31522-2 0  9990
2 05000 099.7940 101.1756 0513856 248.9054 105.6372 12.61509146042922
1 05000U 70025 HW 92345.73993034  .00000915 +00000-0 +31255-2 0  9993
2 05000 099.7936 102.3776 0514001 245.8799 108.7680 12.61511604043106
1 05000U 70025 HW 92346.77094339  .00000909 +00000-0 +31045-2 0  9998
2 05000 099.7935 103.2464 0514037 243.6817 111.0579 12.61513320043230
1 05000U 70025 HW 92347.80195663  .00000908 +00000-0 +31011-2 0  9997
2 05000 099.7935 104.1160 0514039 241.4940 113.3465 12.61515153043367
1 05000U 70025 HW 92348.83296934  .00000897 +00000-0 +30642-2 0  9990
2 05000 099.7931 104.9839 0514046 239.3204 115.6241 12.61516700043491
1 05000U 70025 HW 92349.30882019  .00000864 +00000-0 +30084-2 0  9992
2 05000 099.7931 105.3851 0513747 238.2737 116.7182 12.61516955043551
1 05000U 70025 HW 92350.18121929  .00000881 +00000-0 +30145-2 0  9993
2 05000 099.7931 106.1211 0513772 236.4254 118.6783 12.61518551043666
1 05000U 70025 HW 92350.73637721  .00000871 +00000-0 +29792-2 0  9991
2 05000 099.7926 106.5861 0513831 235.2383 119.9282 12.61519362043738
1 05000U 70025 HW 92351.76739198  .00000865 +00000-0 +29574-2 0  9997
2 05000 099.7924 107.4542 0513898 233.0351 122.2617 12.61521048043863
1 05000U 70025 HW 92353.19495166  .00000858 +00000-0 +29331-2 0  9993
2 05000 099.7924 108.6578 0513854 229.9977 125.4924 12.61523270044041
1 05000U 70025 HW 92354.78112613  .00000850 +00000-0 +29056-2 0  9998
2 05000 099.7924 109.9955 0513880 226.6230 129.0947 12.61525730044249
1 05000U 70025 HW 92355.81214395  .00000812 +00000-0 +28284-2 0  9993
2 05000 099.7923 110.8649 0513918 224.4922 131.3793 12.61526625044378
1 05000U 70025 HW 92356.20868687  .00000832 +00000-0 +28428-2 0  9998
2 05000 099.7925 111.2004 0513959 223.6570 132.2786 12.61527395044428
1 05000U 70025 HW 92356.76384935  .00000826 +00000-0 +28207-2 0  9996
2 05000 099.7922 111.6672 0514032 222.4673 133.5532 12.61528197044495
1 05000U 70025 HW 92358.19141051  .00000825 +00000-0 +28184-2 0  9998
2 05000 099.7924 112.8719 0514058 219.4337 136.8269 12.61530509044676
1 05000U 70025 HW 92358.74656951  .00000819 +00000-0 +27983-2 0  9998
2 05000 099.7921 113.3384 0514108 218.2552 138.0973 12.61531319044743
1 05000U 70025 HW 92359.77758607  .00000815 +00000-0 +27868-2 0  9991
2 05000 099.7921 114.2076 0514160 216.0609 140.4741 12.61532929044870
1 05000U 70025 HW 92361.20514932  .00000806 +00000-0 +27533-2 0  9992
2 05000 099.7921 115.4124 0514124 213.0742 143.7224 12.61534802045057
1 05000U 70025 HW 92362.23616137  .00000805 +00000-0 +27495-2 0  9992
2 05000 099.7920 116.2810 0514178 210.8871 146.1030 12.61536490045185
1 05000U 70025 HW 92363.18786949  .00000804 +00000-0 +27465-2 0  9992
2 05000 099.7922 117.0845 0514248 208.8650 148.3080 12.61537986045308
1 05000U 70025 HW 92364.77404370  .00000797 +00000-0 +27216-2 0  9998
2 05000 099.7921 118.4218 0514390 205.4913 151.9937 12.61540366045508
1 05000U 70025 HW 92366.20160713  .00000777 +00000-0 +26532-2 0  9996
2 05000 099.7923 119.6273 0514470 202.4522 155.3302 12.61541842045689
1 05000U 70025 HW 92366.83607525  .00000767 +00000-0 +26175-2 0  9994
2 05000 099.7920 120.1604 0514588 201.1107 156.8021 12.61542595045765
1 05000U 70025 HW 93001.78778344  .00000755 +00000-0 +25809-2 0  9993
2 05000 099.7921 120.9643 0514569 199.0853 159.0287 12.61543607045886
1 05000U 70025 HW 93002.73948864  .00000739 +00000-0 +25265-2 0  9993
2 05000 099.7913 121.7627 0514615 197.0975 161.2116 12.61544680046006
1 05000U 70025 HW 93003.77050381  .00000730 +00000-0 +24937-2 0  9992
2 05000 099.7912 122.6313 0514743 194.9092 163.6277 12.61545951046135
1 05000U 70025 HW 93004.88083075  .00000690 +00000-0 +23602-2 0  9994
2 05000 099.7905 123.5654 0514258 192.6864 166.0710 12.61545958046279
1 05000U 70025 HW 93006.22908331  .00000681 +00000-0 +23292-2 0  9990
2 05000 099.7908 124.7033 0514365 189.8189 169.2521 12.61547471046449
1 05000U 70025 HW 93006.30839222  .00000681 +00000-0 +23279-2 0  9996
2 05000 099.7908 124.7702 0514367 189.6499 169.4394 12.61547566046452
1 05000U 70025 HW 93007.81525838  .00000635 +00000-0 +22265-2 0  9991
2 05000 099.7906 126.0405 0514038 186.4943 172.9127 12.61548445046640
1 05000U 70025 HW 93008.21180575  .00000647 +00000-0 +22154-2 0  9991
2 05000 099.7906 126.3748 0514071 185.6449 173.8684 12.61548856046691
1 05000U 70025 HW 93008.76696636  .00000636 +00000-0 +21793-2 0  9997
2 05000 099.7906 126.8428 0514289 184.4514 175.1848 12.61549274046762
1 05000U 70025 HW 93010.19452852  .00000598 +00000-0 +20458-2 0  9991
2 05000 099.7909 128.0482 0514704 181.3439 178.6264 12.61549651046942
1 05000U 70025 HW 93010.82899861  .00000583 +00000-0 +19947-2 0  9991
2 05000 099.7909 128.5830 0514890 180.0024 180.1109 12.61549969047024
1 05000U 70025 HW 93011.78070225  .00000541 +00000-0 +18539-2 0  9992
2 05000 099.7913 129.3883 0514491 178.0343 182.2629 12.61549425047144
1 05000U 70025 HW 93013.20826303  .00000541 +00000-0 +18544-2 0  9993
2 05000 099.7914 130.5922 0514522 175.0085 185.6411 12.61550995047328
1 05000U 70025 HW 93015.19098056  .00000501 +00000-0 +17161-2 0  9999
2 05000 099.7916 132.2662 0515080 170.7668 190.3348 12.61551712047576
1 05000U 70025 HW 93015.82544775  .00000491 +00000-0 +16821-2 0  9993
2 05000 099.7917 132.8016 0515143 169.4271 191.8102 12.61552014047650
1 05000U 70025 HW 93017.17369209  .00000479 +00000-0 +16395-2 0  9992
2 05000 099.7917 133.9390 0515281 166.5792 194.9609 12.61552940047829
1 05000U 70025 HW 93018.20470317  .00000444 +00000-0 +15245-2 0  9995
2 05000 099.7905 134.8024 0515051 164.4253 197.3353 12.61552988047953
1 05000U 70025 HW 93018.83917011  .00000433 +00000-0 +14833-2 0  9991
2 05000 099.7906 135.3380 0515247 163.0810 198.8168 12.61553136048032
1 05000U 70025 HW 93019.79087321  .00000404 +00000-0 +13856-2 0  9991
2 05000 099.7908 136.1414 0515372 161.0608 201.0429 12.61552886048154
1 05000U 70025 HW 93020.26672256  .00000388 +00000-0 +13821-2 0  9995
2 05000 099.7908 136.5428 0515369 160.0511 202.1547 12.61553233048218
1 05000U 70025 HW 93020.82187964  .00000382 +00000-0 +13119-2 0  9998
2 05000 099.7911 137.0120 0515028 158.9106 203.3925 12.61552814048289
1 05000U 70025 HW 93022.17012042  .00000378 +00000-0 +12984-2 0  9996
2 05000 099.7912 138.1494 0515101 156.0583 206.5398 12.61553717048457
1 05000U 70025 HW 93022.72527613  .00000348 +00000-0 +12510-2 0  9994
2 05000 099.7905 138.6142 0514871 154.9002 207.8013 12.61553773048528
1 05000U 70025 HW 93023.20112537  .00000363 +00000-0 +12517-2 0  9997
2 05000 099.7905 139.0159 0514837 153.8942 208.9099 12.61554101048582
1 05000U 70025 HW 93023.83558918  .00000350 +00000-0 +12029-2 0  9997
2 05000 099.7911 139.5530 0515094 152.5524 210.3755 12.61554003048661
1 05000U 70025 HW 93024.78729111  .00000301 +00000-0 +10930-2 0  9992
2 05000 099.7913 140.3580 0514495 150.5389 212.5765 12.61553209048784
1 05000U 70025 HW 93025.18383026  .00000319 +00000-0 +10976-2 0  9997
2 05000 099.7913 140.6927 0514457 149.7002 213.4918 12.61553489048838
1 05000U 70025 HW 93025.73898426  .00000312 +00000-0 +10749-2 0  9994
2 05000 099.7910 141.1591 0514404 148.5307 214.7632 12.61553692048906
1 05000U 70025 HW 93027.16652331  .00000303 +00000-0 +10461-2 0  9997
2 05000 099.7912 142.3631 0514440 145.5146 218.0469 12.61554298049082
1 05000U 70025 HW 93027.72167594  .00000289 +00000-0 +99823-3 0  9994
2 05000 099.7906 142.8284 0514140 144.3510 219.2997 12.61554229049154
1 05000U 70025 HW 93029.14922058  .00000242 +00000-0 +84389-3 0  9996
2 05000 099.7907 144.0322 0512933 141.3461 222.5524 12.61553126049330
1 05000U 70025 HW 93029.30783549  .00000227 +00000-0 +84331-3 0  9994
2 05000 099.7907 144.1660 0512938 141.0093 222.9166 12.61553198049356
1 05000U 70025 HW 93029.78367986  .00000241 +00000-0 +83922-3 0  9990
2 05000 099.7907 144.5669 0512973 140.0003 224.0062 12.61553413049413
1 05000U 70025 HW 93031.21121126  .00000228 +00000-0 +79403-3 0  9999
2 05000 099.7906 145.7699 0513182 136.9662 227.2720 12.61553716049597
